GLOBALSTAR M094         
1 39074U 13005C   25249.89471620 -.00000072  00000+0  17695-3 0  9991
2 39074  51.9960 293.3449 0000648  98.3790 261.7150 12.62269643582696
GLOBALSTAR M096         
1 39075U 13005D   25249.51192453 -.00000083  00000+0  11669-3 0  9992
2 39075  52.0102 343.0866 0000829  94.4216 265.6746 12.62266457581563
GLOBALSTAR M078         
1 39076U 13005E   25249.80252942 -.00000099  00000+0  25117-4 0  9996
2 39076  51.9871  66.5997 0001187  39.1917 320.9035 12.62260023580220
GLOBALSTAR M095         
1 39077U 13005F   25249.82850665 -.00000097  00000+0  36600-4 0  9992
2 39077  52.0082  63.7214 0001231  68.4141 291.6857 12.62259877580087
GLOBALSTAR M087         
1 52888U 22064A   25249.60517461 -.00000114  00000+0 -56643-4 0  9992
2 52888  51.9978 205.8098 0000611  54.2022 305.8901 12.62301200155326
